ONEWEB-0311             
1 49097U 21075Y   24201.92601303  .00000013  00000+0 -17726-6 0  9990
2 49097  87.9191 144.6941 0002242  91.1170 269.0218 13.17647371141806
ONEWEB-0312             
1 49098U 21075Z   24202.09243926  .00000056  00000+0  11100-3 0  9996
2 49098  87.9191 144.6932 0001879  94.6662 265.4684 13.17648153142780
ONEWEB-0313             
1 49099U 21075AA  24201.91795004 -.00000018  00000+0 -78708-4 0  9994
2 49099  87.9191 144.7301 0001974  87.2328 272.9029 13.17648885141771
ONEWEB-0314             
1 49100U 21075AB  24201.91147835  .00000033  00000+0  52090-4 0  9991
2 49100  87.9187 144.6882 0001936  92.9318 267.2035 13.17648513141741
ONEWEB-0315             
1 49101U 21075AC  24201.86803786  .00000479  00000+0  12960-2 0  9994
2 49101  87.8952 129.5271 0002107  76.4138 283.7226 13.12443429143700
ONEWEB-0316             
1 49102U 21075AD  24202.23383722  .00000083  00000+0  17674-3 0  9999
2 49102  87.9150 114.2131 0002063  82.2696 277.8671 13.18684358146360
ONEWEB-0317             
1 49103U 21075AE  24201.86154830  .00000460  00000+0  12424-2 0  9990
2 49103  87.8953 129.5384 0001783  63.9455 296.1856 13.12444442143725
ONEWEB-0318             
1 49104U 21075AF  24202.23067553  .00000066  00000+0  13456-3 0  9997
2 49104  87.9148 114.2065 0002136  84.5826 275.5549 13.18684478146313
